[{"CCSDS_OMM_VERS":"2.0","COMMENT":"GENERATED VIA SPACE-TRACK.ORG API","CREATION_DATE":"2020-12-01T19:37:25","ORIGINATOR":"18 SPCS","OBJECT_NAME":"STARLINK-1541","OBJECT_ID":"2020-055AB","CENTER_NAME":"EARTH","REF_FRAME":"TEME","TIME_SYSTEM":"UTC","MEAN_ELEMENT_THEORY":"SGP4","EPOCH":"2020-12-01T11:49:22.810368","MEAN_MOTION":"15.06360182","ECCENTRICITY":"0.00031130","INCLINATION":"53.0140","RA_OF_ASC_NODE":"114.6637","ARG_OF_PERICENTER":"170.1930","MEAN_ANOMALY":"189.9120","EPHEMERIS_TYPE":"0","CLASSIFICATION_TYPE":"U","NORAD_CAT_ID":"46052","ELEMENT_SET_NO":"999","REV_AT_EPOCH":"1898","BSTAR":"0.00032331000000","MEAN_MOTION_DOT":"0.00004532","MEAN_MOTION_DDOT":"0.0000000000000","SEMIMAJOR_AXIS":"6925.470","PERIOD":"95.594","APOAPSIS":"549.491","PERIAPSIS":"545.179","OBJECT_TYPE":"PAYLOAD","RCS_SIZE":"LARGE","COUNTRY_CODE":"US","LAUNCH_DATE":"2020-08-07","SITE":"AFETR","DECAY_DATE":null,"FILE":"2895669","GP_ID":"166705727","TLE_LINE0":"0 STARLINK-1541","TLE_LINE1":"1 46052U 20055AB  20336.49262512 +.00004532 +00000-0 +32331-3 0  9993","TLE_LINE2":"2 46052 053.0140 114.6637 0003113 170.1930 189.9120 15.06360182018987"},{"CCSDS_OMM_VERS":"2.0","COMMENT":"GENERATED VIA SPACE-TRACK.ORG API","CREATION_DATE":"2020-12-01T14:36:09","ORIGINATOR":"18 SPCS","OBJECT_NAME":"STARLINK-1579","OBJECT_ID":"2020-055BJ","CENTER_NAME":"EARTH","REF_FRAME":"TEME","TIME_SYSTEM":"UTC","MEAN_ELEMENT_THEORY":"SGP4","EPOCH":"2020-12-01T11:50:59.161920","MEAN_MOTION":"15.05584673","ECCENTRICITY":"0.00015290","INCLINATION":"52.9968","RA_OF_ASC_NODE":"94.6920","ARG_OF_PERICENTER":"86.9929","MEAN_ANOMALY":"273.1234","EPHEMERIS_TYPE":"0","CLASSIFICATION_TYPE":"U","NORAD_CAT_ID":"46083","ELEMENT_SET_NO":"999","REV_AT_EPOCH":"1875","BSTAR":"-0.00004302300000","MEAN_MOTION_DOT":"-0.00000906","MEAN_MOTION_DDOT":"0.0000000000000","SEMIMAJOR_AXIS":"6927.848","PERIOD":"95.643","APOAPSIS":"550.772","PERIAPSIS":"548.654","OBJECT_TYPE":"PAYLOAD","RCS_SIZE":"LARGE","COUNTRY_CODE":"US","LAUNCH_DATE":"2020-08-07","SITE":"AFETR","DECAY_DATE":null,"FILE":"2895511","GP_ID":"166683081","TLE_LINE0":"0 STARLINK-1579","TLE_LINE1":"1 46083U 20055BJ  20336.49374030 -.00000906  00000-0 -43023-4 0  9990","TLE_LINE2":"2 46083  52.9968  94.6920 0001529  86.9929 273.1234 15.05584673 18759"},{"CCSDS_OMM_VERS":"2.0","COMMENT":"GENERATED VIA SPACE-TRACK.ORG API","CREATION_DATE":"2020-12-01T19:37:25","ORIGINATOR":"18 SPCS","OBJECT_NAME":"STARLINK-1532","OBJECT_ID":"2020-055AT","CENTER_NAME":"EARTH","REF_FRAME":"TEME","TIME_SYSTEM":"UTC","MEAN_ELEMENT_THEORY":"SGP4","EPOCH":"2020-12-01T11:55:45.048288","MEAN_MOTION":"15.05590858","ECCENTRICITY":"0.00016120","INCLINATION":"52.9928","RA_OF_ASC_NODE":"94.6951","ARG_OF_PERICENTER":"72.7756","MEAN_ANOMALY":"287.3408","EPHEMERIS_TYPE":"0","CLASSIFICATION_TYPE":"U","NORAD_CAT_ID":"46068","ELEMENT_SET_NO":"999","REV_AT_EPOCH":"1929","BSTAR":"0.00014713000000","MEAN_MOTION_DOT":"0.00001865","MEAN_MOTION_DDOT":"0.0000000000000","SEMIMAJOR_AXIS":"6927.829","PERIOD":"95.643","APOAPSIS":"550.811","PERIAPSIS":"548.577","OBJECT_TYPE":"PAYLOAD","RCS_SIZE":"LARGE","COUNTRY_CODE":"US","LAUNCH_DATE":"2020-08-07","SITE":"AFETR","DECAY_DATE":null,"FILE":"2895669","GP_ID":"166706467","TLE_LINE0":"0 STARLINK-1532","TLE_LINE1":"1 46068U 20055AT  20336.49704917 +.00001865 +00000-0 +14713-3 0  9990","TLE_LINE2":"2 46068 052.9928 094.6951 0001612 072.7756 287.3408 15.05590858019298"},{"CCSDS_OMM_VERS":"2.0","COMMENT":"GENERATED VIA SPACE-TRACK.ORG API","CREATION_DATE":"2020-12-01T19:37:25","ORIGINATOR":"18 SPCS","OBJECT_NAME":"GLOBAL-8","OBJECT_ID":"2020-055BQ","CENTER_NAME":"EARTH","REF_FRAME":"TEME","TIME_SYSTEM":"UTC","MEAN_ELEMENT_THEORY":"SGP4","EPOCH":"2020-12-01T11:56:27.574368","MEAN_MOTION":"15.54567096","ECCENTRICITY":"0.00020610","INCLINATION":"53.0072","RA_OF_ASC_NODE":"88.7574","ARG_OF_PERICENTER":"119.3012","MEAN_ANOMALY":"240.8204","EPHEMERIS_TYPE":"0","CLASSIFICATION_TYPE":"U","NORAD_CAT_ID":"46089","ELEMENT_SET_NO":"999","REV_AT_EPOCH":"2268","BSTAR":"0.00019858000000","MEAN_MOTION_DOT":"0.00012883","MEAN_MOTION_DDOT":"0.0000000000000","SEMIMAJOR_AXIS":"6781.548","PERIOD":"92.630","APOAPSIS":"404.810","PERIAPSIS":"402.015","OBJECT_TYPE":"PAYLOAD","RCS_SIZE":"MEDIUM","COUNTRY_CODE":"US","LAUNCH_DATE":"2020-08-07","SITE":"AFETR","DECAY_DATE":null,"FILE":"2895669","GP_ID":"166706760","TLE_LINE0":"0 GLOBAL-8","TLE_LINE1":"1 46089U 20055BQ  20336.49754137 +.00012883 +00000-0 +19858-3 0  9999","TLE_LINE2":"2 46089 053.0072 088.7574 0002061 119.3012 240.8204 15.54567096022687"},{"CCSDS_OMM_VERS":"2.0","COMMENT":"GENERATED VIA SPACE-TRACK.ORG API","CREATION_DATE":"2020-12-01T19:37:25","ORIGINATOR":"18 SPCS","OBJECT_NAME":"STARLINK-1535","OBJECT_ID":"2020-055Z","CENTER_NAME":"EARTH","REF_FRAME":"TEME","TIME_SYSTEM":"UTC","MEAN_ELEMENT_THEORY":"SGP4","EPOCH":"2020-12-01T11:59:53.608128","MEAN_MOTION":"15.06106683","ECCENTRICITY":"0.00013770","INCLINATION":"52.9961","RA_OF_ASC_NODE":"114.6751","ARG_OF_PERICENTER":"85.1793","MEAN_ANOMALY":"274.9352","EPHEMERIS_TYPE":"0","CLASSIFICATION_TYPE":"U","NORAD_CAT_ID":"46050","ELEMENT_SET_NO":"999","REV_AT_EPOCH":"1901","BSTAR":"0.00356680000000","MEAN_MOTION_DOT":"0.00052826","MEAN_MOTION_DDOT":"0.0000000000000","SEMIMAJOR_AXIS":"6926.247","PERIOD":"95.610","APOAPSIS":"549.066","PERIAPSIS":"547.158","OBJECT_TYPE":"PAYLOAD","RCS_SIZE":"LARGE","COUNTRY_CODE":"US","LAUNCH_DATE":"2020-08-07","SITE":"AFETR","DECAY_DATE":null,"FILE":"2895669","GP_ID":"166706114","TLE_LINE0":"0 STARLINK-1535","TLE_LINE1":"1 46050U 20055Z   20336.49992602 +.00052826 +00000-0 +35668-2 0  9995","TLE_LINE2":"2 46050 052.9961 114.6751 0001377 085.1793 274.9352 15.06106683019014"},{"CCSDS_OMM_VERS":"2.0","COMMENT":"GENERATED VIA SPACE-TRACK.ORG API","CREATION_DATE":"2020-12-01T14:36:09","ORIGINATOR":"18 SPCS","OBJECT_NAME":"STARLINK-1539","OBJECT_ID":"2020-055AX","CENTER_NAME":"EARTH","REF_FRAME":"TEME","TIME_SYSTEM":"UTC","MEAN_ELEMENT_THEORY":"SGP4","EPOCH":"2020-12-01T12:00:32.762016","MEAN_MOTION":"15.05581582","ECCENTRICITY":"0.00014220","INCLINATION":"52.9858","RA_OF_ASC_NODE":"94.7280","ARG_OF_PERICENTER":"83.9683","MEAN_ANOMALY":"276.1466","EPHEMERIS_TYPE":"0","CLASSIFICATION_TYPE":"U","NORAD_CAT_ID":"46072","ELEMENT_SET_NO":"999","REV_AT_EPOCH":"1875","BSTAR":"-0.00004176100000","MEAN_MOTION_DOT":"-0.00000888","MEAN_MOTION_DDOT":"0.0000000000000","SEMIMAJOR_AXIS":"6927.858","PERIOD":"95.644","APOAPSIS":"550.708","PERIAPSIS":"548.737","OBJECT_TYPE":"PAYLOAD","RCS_SIZE":"LARGE","COUNTRY_CODE":"US","LAUNCH_DATE":"2020-08-07","SITE":"AFETR","DECAY_DATE":null,"FILE":"2895493","GP_ID":"166682374","TLE_LINE0":"0 STARLINK-1539","TLE_LINE1":"1 46072U 20055AX  20336.50037919 -.00000888  00000-0 -41761-4 0  9998","TLE_LINE2":"2 46072  52.9858  94.7280 0001422  83.9683 276.1466 15.05581582 18757"},{"CCSDS_OMM_VERS":"2.0","COMMENT":"GENERATED VIA SPACE-TRACK.ORG API","CREATION_DATE":"2020-12-01T19:37:25","ORIGINATOR":"18 SPCS","OBJECT_NAME":"FALCON 9 DEB","OBJECT_ID":"2020-055BM","CENTER_NAME":"EARTH","REF_FRAME":"TEME","TIME_SYSTEM":"UTC","MEAN_ELEMENT_THEORY":"SGP4","EPOCH":"2020-12-01T12:00:35.536320","MEAN_MOTION":"15.60246355","ECCENTRICITY":"0.00138960","INCLINATION":"53.0100","RA_OF_ASC_NODE":"85.1797","ARG_OF_PERICENTER":"303.3601","MEAN_ANOMALY":"56.6080","EPHEMERIS_TYPE":"0","CLASSIFICATION_TYPE":"U","NORAD_CAT_ID":"46086","ELEMENT_SET_NO":"999","REV_AT_EPOCH":"2273","BSTAR":"0.00020869000000","MEAN_MOTION_DOT":"0.00016927","MEAN_MOTION_DDOT":"0.0000000000000","SEMIMAJOR_AXIS":"6765.081","PERIOD":"92.293","APOAPSIS":"396.347","PERIAPSIS":"377.546","OBJECT_TYPE":"DEBRIS","RCS_SIZE":"MEDIUM","COUNTRY_CODE":"US","LAUNCH_DATE":"2020-08-07","SITE":"AFETR","DECAY_DATE":null,"FILE":"2895669","GP_ID":"166706070","TLE_LINE0":"0 FALCON 9 DEB","TLE_LINE1":"1 46086U 20055BM  20336.50041130 +.00016927 +00000-0 +20869-3 0  9997","TLE_LINE2":"2 46086 053.0100 085.1797 0013896 303.3601 056.6080 15.60246355022731"},{"CCSDS_OMM_VERS":"2.0","COMMENT":"GENERATED VIA SPACE-TRACK.ORG API","CREATION_DATE":"2020-12-01T19:37:25","ORIGINATOR":"18 SPCS","OBJECT_NAME":"FALCON 9 DEB","OBJECT_ID":"2020-055BL","CENTER_NAME":"EARTH","REF_FRAME":"TEME","TIME_SYSTEM":"UTC","MEAN_ELEMENT_THEORY":"SGP4","EPOCH":"2020-12-01T12:02:27.299904","MEAN_MOTION":"15.59379831","ECCENTRICITY":"0.00105650","INCLINATION":"53.0133","RA_OF_ASC_NODE":"85.9633","ARG_OF_PERICENTER":"319.0941","MEAN_ANOMALY":"40.9276","EPHEMERIS_TYPE":"0","CLASSIFICATION_TYPE":"U","NORAD_CAT_ID":"46085","ELEMENT_SET_NO":"999","REV_AT_EPOCH":"2272","BSTAR":"0.00022471000000","MEAN_MOTION_DOT":"0.00017631","MEAN_MOTION_DDOT":"0.0000000000000","SEMIMAJOR_AXIS":"6767.587","PERIOD":"92.344","APOAPSIS":"396.602","PERIAPSIS":"382.302","OBJECT_TYPE":"DEBRIS","RCS_SIZE":"MEDIUM","COUNTRY_CODE":"US","LAUNCH_DATE":"2020-08-07","SITE":"AFETR","DECAY_DATE":null,"FILE":"2895669","GP_ID":"166705969","TLE_LINE0":"0 FALCON 9 DEB","TLE_LINE1":"1 46085U 20055BL  20336.50170486 +.00017631 +00000-0 +22471-3 0  9997","TLE_LINE2":"2 46085 053.0133 085.9633 0010565 319.0941 040.9276 15.59379831022720"}]